P/2017 D1 (Fuls),e,20.7618,82.1786,8.0126,4.824595,0.0930064,0.43890294,88.7607,02/08.0/2019,2000,g 14.0,4.0
# From MPC112391
C/2017 D2 (Barros),e,31.2586,331.0229,334.3735,1909,0.0000118,0.99869741,0.0000,07/14.6292/2017,2000,g 11.0,4.0
# From MPC111769
C/2017 D3 (ATLAS),h,04/26.9159/2017,125.5623,186.6213,340.8061,1.001464,4.972859,2000,8.0,4.0
# From MPC110495
P/2017 D4 (PANSTARRS),e,10.5234,264.9566,212.2195,7.577309,0.0472532,0.63063766,41.7038,02/08.0/2019,2000,g 13.0,4.0
# From MPC104794
C/2017 D5 (PANSTARRS),e,131.0565,92.7321,287.8352,114.5891,0.0008035,0.98109194,0.0000,01/09.0152/2017,2000,g 16.0,4.0
# From MPC106346
C/2017 E1 (Borisov),h,04/10.2568/2017,14.5571,142.6799,152.5234,1.002796,0.900218,2000,14.0,4.0
# From MPC109144
C/2017 E2 (Tsuchinshan),e,78.9981,11.5455,89.4079,21.59190,0.0098235,0.89110556,9.8443,02/08.0/2019,2000,g 11.5,4.0
# From MPC111769
C/2017 E3 (PANSTARRS),h,06/08.2693/2017,70.6239,220.7263,334.4811,1.008187,5.933676,2000,6.5,4.0
# From MPC105239
C/2017 E4 (Lovejoy),h,04/23.3749/2017,88.1694,223.1904,87.1079,1.001499,0.492922,2000,17.0,4.0
# From MPC105239
C/2017 E5 (Lemmon),e,122.6505,206.2213,306.8022,374.4451,0.0001360,0.99523185,0.0000,06/10.5948/2016,2000,g 13.0,4.0
# From MPC111769
C/2017 F1 (Lemmon),h,11/30.9230/2017,146.4801,158.7611,64.8179,1.004805,4.499359,2000,10.5,4.0
# From MPC111769
C/2017 F2 (PANSTARRS),h,11/27.5089/2017,42.5055,38.6692,135.0047,1.005646,6.929360,2000,7.5,4.0
# From MPC104794
P/2017 G1 (PANSTARRS),e,4.7759,249.6300,224.5993,7.308526,0.0498838,0.65513198,50.5040,02/08.0/2019,2000,g 13.5,4.0
# From MPC108595
P/2017 G2 (PANSTARRS),e,47.9579,79.8050,105.7678,8.110653,0.0426698,0.64956389,25.8052,02/08.0/2019,2000,g 13.0,4.0
# From MPC109144
C/2017 G3 (PANSTARRS),e,159.0557,279.4801,73.1322,290.5136,0.0001990,0.99107931,0.0000,04/15.1153/2017,2000,g 14.0,4.0
# From MPC111769
C/2017 K1 (PANSTARRS),h,03/15.9863/2018,154.0045,225.6398,4.2919,1.000454,7.286802,2000,7.0,4.0
# From MPC112391
C/2017 K2 (PANSTARRS),h,12/20.5594/2022,87.5426,88.2645,236.0895,1.000367,1.804728,2000,1.5,4.0
# From MPC106346
P/2017 K3 (Gasparovic),e,4.2775,354.3152,253.3377,5.575793,0.0748590,0.58114541,46.2055,02/08.0/2019,2000,g 14.5,4.0
# From MPC112391
C/2017 K4 (ATLAS),e,16.6781,298.8870,15.1361,28.24536,0.0065657,0.90624045,2.5993,02/08.0/2019,2000,g 10.0,4.0
# From MPC110495
C/2017 K5 (PANSTARRS),h,03/22.6010/2020,82.2569,102.3778,171.7203,1.003879,7.680076,2000,7.0,4.0
# From MPC112391
C/2017 K6 (Jacques),e,57.2556,85.0555,303.8202,1106,0.0000268,0.99818968,0.0000,01/03.1197/2018,2000,g 11.0,4.0
# From MPC110083
C/2017 M3 (PANSTARRS),e,77.5039,6.9995,110.3676,171.1206,0.0004403,0.97277928,0.0000,04/28.4402/2017,2000,g 10.5,4.0
# From MPC112391
C/2017 M4 (ATLAS),h,01/18.1871/2019,105.6576,65.8672,167.6213,1.002317,3.251756,2000,6.0,4.0
# From MPC112391
C/2017 M5 (TOTAS),h,06/03.1899/2018,15.8848,216.2641,92.6792,1.004220,5.989719,2000,6.5,4.0
# From MPC110495
C/2017 O1 (ASASSN),e,39.8505,25.8044,20.8923,381.2577,0.0001324,0.99606980,0.0000,10/14.7304/2017,2000,g 11.0,4.0
# From MPC106347
P/2017 P1 (PANSTARRS),e,7.7013,221.3938,122.1513,7.876458,0.0445869,0.30946810,10.5122,02/08.0/2019,2000,g 10.0,4.0
# From MPC111769
C/2017 P2 (PANSTARRS),e,50.0765,165.5421,132.2571,1437,0.0000181,0.99828725,0.0000,12/06.6157/2017,2000,g 10.0,4.0
# From MPC108595
P/2017 R1 (PANSTARRS),e,2.5730,143.6399,178.4247,4.134249,0.1172490,0.19525951,78.6117,02/08.0/2019,2000,g 13.5,4.0
# From MPC108595
C/2017 S2 (PANSTARRS),e,12.6833,62.4273,305.9422,20.46397,0.0106468,0.82341461,5.6189,02/08.0/2019,2000,g 13.0,4.0
# From MPC111770
C/2017 S3 (PANSTARRS),h,08/15.9709/2018,99.0393,171.0357,255.8034,1.000627,0.208518,2000,11.0,4.0
# From MPC110083
P/2017 S5 (ATLAS),e,11.8504,252.3925,99.8680,3.170446,0.1745917,0.31328811,97.7886,02/08.0/2019,2000,g 14.0,4.0
# From MPC109591
C/2017 S6 (Catalina),h,02/26.9729/2018,152.8470,130.9381,134.7662,1.001504,1.543258,2000,12.5,4.0
# From MPC112391
C/2017 S7 (Lemmon),h,05/27.1957/2017,124.2339,262.7950,187.7042,1.002381,7.613005,2000,7.0,4.0
# From MPC109145
P/2017 S8 (PANSTARRS),e,29.8545,191.8054,254.5870,2.776199,0.2130729,0.39345576,79.9758,02/08.0/2019,2000,g 16.0,4.0
# From MPC107050
P/2017 S9 (PANSTARRS),e,14.1406,146.2108,237.8133,3.155441,0.1758385,0.30460684,99.2911,02/08.0/2019,2000,g 17.0,4.0
# From MPC109145
C/2017 T1 (Heinze),e,96.8413,102.3231,96.8883,51298,0.0000001,0.99998869,0.0000,02/21.6900/2018,2000,g 14.5,4.0
# From MPC112391
C/2017 T2 (PANSTARRS),e,57.2369,64.3780,93.0007,9340,0.0000011,0.99982713,0.0000,05/04.9186/2020,2000,g  5.0,4.0
# From MPC111770
C/2017 T3 (ATLAS),e,88.0969,230.0857,246.8796,5139,0.0000027,0.99983938,0.0000,07/19.1705/2018,2000,g 10.0,4.0
# From MPEC 2018-W75
P/2017 TW13 (Lemmon),e,44.8394,322.2749,120.1057,7.159142,0.0514532,0.70963061,11.9388,02/08.0/2019,2000,g 15.0,2.0
# From MPC109145
C/2017 U2 (Fuls),e,95.4097,149.7173,147.7339,8663,0.0000012,0.99922649,0.0000,08/28.1722/2017,2000,g  9.0,4.0
# From MPC109146
P/2017 U3 (PANSTARRS),e,15.9078,165.1276,297.3926,4.934764,0.0899093,0.09935659,353.5048,02/08.0/2019,2000,g 11.0,4.0
# From MPC112392
C/2017 U4 (PANSTARRS),h,09/25.1203/2018,158.2266,245.9509,159.1398,1.003841,7.724172,2000,7.0,4.0
# From MPC109146
C/2017 U5 (PANSTARRS),e,18.9586,163.1008,262.1176,16.90545,0.0141796,0.74409135,5.9019,02/08.0/2019,2000,g 12.0,4.0
# From MPC111770
C/2017 W2 (Leonard),e,98.1915,312.8160,169.1621,13.70669,0.0194225,0.71128181,8.9935,02/08.0/2019,2000,g 11.0,4.0
# From MPC111770
P/2017 W3 (Gibbs),e,18.2986,210.7482,326.6142,7.777859,0.0454375,0.50648000,15.7601,02/08.0/2019,2000,g 10.5,4.0
# From MPC111770
C/2017 X1 (PANSTARRS),e,31.3114,251.1256,283.1508,31.38050,0.0056068,0.85140561,1.3356,02/08.0/2019,2000,g 10.0,4.0
# From MPC109146
C/2017 Y1 (PANSTARRS),e,55.2466,307.5138,134.4223,2472,0.0000080,0.99849592,0.0000,08/31.3334/2017,2000,g 11.5,4.0
# From MPC109146
C/2017 Y2 (PANSTARRS),e,126.0739,61.4853,146.1460,15.86645,0.0155950,0.67357657,347.4312,02/08.0/2019,2000,g  8.0,4.0
# From MPC111770
P/2017 Y3 (Leonard),e,27.5842,153.8719,67.5329,9.854163,0.0318621,0.87055428,11.5264,02/08.0/2019,2000,g 16.5,4.0
# From MPC111770
C/2018 A1 (PANSTARRS),e,53.5664,336.6204,96.3764,25.21614,0.0077837,0.90405715,3.7022,02/08.0/2019,2000,g 12.5,4.0
# From MPC112392
C/2018 A3 (ATLAS),e,139.5620,194.2804,86.4253,504.3327,0.0000870,0.99350276,0.0000,01/12.8573/2019,2000,g  8.5,4.0
# From MPC109592
C/2018 A4 (PANSTARRS),e,3.1484,97.6268,356.1036,12.38567,0.0226113,0.80596046,5.9989,02/08.0/2019,2000,g 14.0,4.0
# From MPC109147
P/2018 A5 (PANSTARRS),e,23.5776,87.8315,359.6698,5.643647,0.0735130,0.52263980,36.9238,02/08.0/2019,2000,g 15.0,4.0
# From MPC111771
C/2018 A6 (Gibbs),e,76.9548,340.3844,264.5172,15.35403,0.0163821,0.80343740,357.4402,02/08.0/2019,2000,g  9.0,4.0
# From MPC112392
C/2018 B1 (Lemmon),h,03/30.3750/2018,162.4234,133.1737,68.3455,1.002916,5.116571,2000,9.0,4.0
# From MPC111771
P/2018 C1 (Lemmon-Read),e,5.1346,270.4270,234.4412,5.585867,0.0746566,0.53511456,25.9130,02/08.0/2019,2000,g 13.5,4.0
# From MPC112392
C/2018 C2 (Lemmon),h,06/02.1740/2018,34.4582,91.1389,134.1174,1.001503,1.956250,2000,13.0,4.0
# From MPC111771
C/2018 E1 (ATLAS),e,72.4849,146.8389,299.4737,54.33117,0.0024611,0.95020389,0.7302,02/08.0/2019,2000,g 10.5,4.0
# From MPC110496
C/2018 E2 (Barros),e,97.7482,67.1941,277.4872,1283,0.0000214,0.99694442,0.0000,12/23.7592/2017,2000,g 10.5,4.0
# From MPC112392
C/2018 EN4 (NEOWISE),e,81.5630,136.1642,35.0143,18.40738,0.0124800,0.92133402,3.0604,02/08.0/2019,2000,g 15.0,4.0
# From MPC111771
C/2018 EF9 (Lemmon),e,84.6914,172.5797,72.6210,634.7140,0.0000616,0.99754740,0.0000,05/23.1309/2018,2000,g 18.0,2.0
# From MPC111771
C/2018 F1 (Grauer),e,46.0706,177.2873,71.6242,321.3463,0.0001711,0.99068564,0.0000,12/14.0777/2018,2000,g 11.5,4.0
# From MPC110084
C/2018 F3 (Johnson),p,08/15.2314/2017,105.5348,293.0113,2.483172,173.0311,2000,13.0,4.0
# From MPC111771
P/2018 H2 (PANSTARRS),e,7.3892,68.4550,120.1376,4.403206,0.1066720,0.53995482,40.6120,02/08.0/2019,2000,g 16.6,2.0
# From MPC111772
C/2018 K1 (Weiland),e,164.1957,260.0089,324.9711,29.91048,0.0060252,0.93720282,1.8506,02/08.0/2019,2000,g 14.9,4.0
# From MPC112392
C/2018 KJ3 (Lemmon),e,136.6766,91.5859,217.6878,1067,0.0000283,0.99660093,0.0000,09/09.8108/2019,2000,g 12.2,2.0
# From MPC111772
P/2018 L1 (PANSTARRS),e,10.5948,268.6270,17.8880,3.647398,0.1414912,0.48300777,12.3773,02/08.0/2019,2000,g 15.0,4.0
# From MPC112392
C/2018 L2 (ATLAS),e,67.4237,243.0179,56.2269,243.6436,0.0002592,0.99297432,0.0000,12/02.5760/2018,2000,g 10.0,4.0
# From MPC112392
P/2018 L4 (PANSTARRS),e,26.6254,145.1916,140.4412,4.934023,0.0899295,0.66026030,17.1897,02/08.0/2019,2000,g 17.5,4.0
# From MPC112392
P/2018 L5 (Leonard),e,2.2091,219.1602,93.6489,3.625543,0.1427725,0.36468423,39.9004,02/08.0/2019,2000,g 14.5,4.0
# From MPC112392
C/2018 M1 (Catalina),e,37.2578,339.4607,14.1358,21.30566,0.0100222,0.93882093,2.1345,02/08.0/2019,2000,g 15.5,4.0
# From MPC112393
C/2018 N1 (NEOWISE),e,159.4441,292.4479,354.5594,339.7419,0.0001574,0.99615252,0.0000,08/01.9788/2018,2000,g 15.5,4.0
# From MPC112393
C/2018 N2 (ASASSN),e,77.5371,25.2607,24.4012,17964,0.0000004,0.99982605,0.0000,11/11.0388/2019,2000,g  6.0,4.0
# From MPC112393
C/2018 O1 (ATLAS),e,154.0427,87.6218,162.4963,27.82175,0.0067163,0.94400084,1.0776,02/08.0/2019,2000,g 17.0,4.0
# From MPEC 2018-Y53
P/2018 P3 (PANSTARRS),e,8.9091,59.2099,305.8840,3.007122,0.1890068,0.41590783,22.9718,02/08.0/2019,2000,g 14.5,4.0
# From MPC112393
P/2018 P4 (PANSTARRS),e,23.1109,353.1095,8.1109,6.659190,0.0573551,0.44946079,5.3160,02/08.0/2019,2000,g 12.0,4.0
# From MPC112393
C/2018 P5 (PANSTARRS),e,7.2568,216.2421,131.6299,12.74061,0.0216730,0.64084263,359.6058,02/08.0/2019,2000,g 11.0,4.0
# From MPC112393
C/2018 R3 (Lemmon),e,69.7134,324.6262,112.8804,1422,0.0000184,0.99909262,0.0000,06/07.2365/2019,2000,g 11.5,4.0
# From MPC112393
